[{"OBJECT_NAME":"STARLINK-11226 [DTC]","OBJECT_ID":"2024-154E","EPOCH":"2026-03-09T10:44:00.678048","MEAN_MOTION":15.69701932,"ECCENTRICITY":0.0001027,"INCLINATION":53.1592,"RA_OF_ASC_NODE":132.6557,"ARG_OF_PERICENTER":96.6131,"MEAN_ANOMALY":263.5003,"EPHEMERIS_TYPE":0,"CLASSIFICATION_TYPE":"U","NORAD_CAT_ID":60907,"ELEMENT_SET_NO":999,"REV_AT_EPOCH":8847,"BSTAR":-2.0817e-7,"MEAN_MOTION_DOT":-6.14e-6,"MEAN_MOTION_DDOT":0},{"OBJECT_NAME":"HORIZON (RS59S)","OBJECT_ID":"2024-199Y","EPOCH":"2026-03-09T22:30:11.638080","MEAN_MOTION":15.70291895,"ECCENTRICITY":0.00030615,"INCLINATION":97.3063,"RA_OF_ASC_NODE":307.7521,"ARG_OF_PERICENTER":244.864,"MEAN_ANOMALY":115.2305,"EPHEMERIS_TYPE":0,"CLASSIFICATION_TYPE":"U","NORAD_CAT_ID":61757,"ELEMENT_SET_NO":999,"REV_AT_EPOCH":12246,"BSTAR":0.00120059,"MEAN_MOTION_DOT":0.00148042,"MEAN_MOTION_DDOT":0}]
